CTC1_L_00485001-01
1 85170U 24863NB  26070.40837963  .00000000  00000+0  00000-0 0  9998
2 85170  66.0000   0.0000 0000000   0.0000   0.0000 13.81943914    19
CTC1_L_00485001-02
1 85171U 26487WB  26070.40837963  .00000000  00000+0  00000-0 0  9993
2 85171  66.0000   0.0000 0000000   0.0000 180.0000 13.81943914    19
CTC1_L_00485002-01
1 85172U 22487TV  26070.40837963  .00000000  00000+0  00000-0 0  9990
2 85172  66.0000  12.0000 0000000   0.0000  24.0000 13.81943914    10
CTC1_L_00485002-02
1 85173U 23984AR  26070.40837963  .00000000  00000+0  00000-0 0  9994
2 85173  66.0000  12.0000 0000000   0.0000 204.0000 13.81943914    11
CTC1_L_00485003-01
1 85174U 25746OU  26070.40837963  .00000000  00000+0  00000-0 0  9993
2 85174  66.0000  24.0000 0000000   0.0000  48.0000 13.81943914    11
CTC1_L_00485003-02
1 85175U 25552CB  26070.40837963  .00000000  00000+0  00000-0 0  9999
2 85175  66.0000  24.0000 0000000   0.0000 228.0000 13.81943914    12
CTC1_L_00485004-01
1 85176U 22372YA  26070.40837963  .00000000  00000+0  00000-0 0  9997
2 85176  66.0000  36.0000 0000000   0.0000  72.0000 13.81943914    13
CTC1_L_00485004-02
1 85177U 23740Q   26070.40837963  .00000000  00000+0  00000-0 0  9998
2 85177  66.0000  36.0000 0000000   0.0000 252.0000 13.81943914    14
CTC1_L_00485005-01
1 85178U 24547VM  26070.40837963  .00000000  00000+0  00000-0 0  9995
2 85178  66.0000  48.0000 0000000   0.0000  96.0000 13.81943914    14
CTC1_L_00485005-02
1 85179U 25212XO  26070.40837963  .00000000  00000+0  00000-0 0  9996
2 85179  66.0000  48.0000 0000000   0.0000 276.0000 13.81943914    15
CTC1_L_00485006-01
1 85180U 25303VJ  26070.40837963  .00000000  00000+0  00000-0 0  9999
2 85180  66.0000  60.0000 0000000   0.0000 120.0000 13.81943914    19
CTC1_L_00485006-02
1 85181U 22179KP  26070.40837963  .00000000  00000+0  00000-0 0  9998
2 85181  66.0000  60.0000 0000000   0.0000 300.0000 13.81943914    10
CTC1_L_00485007-01
1 85182U 23876MQ  26070.40837963  .00000000  00000+0  00000-0 0  9994
2 85182  66.0000  72.0000 0000000   0.0000 144.0000 13.81943914    10
CTC1_L_00485007-02
1 85183U 25598MZ  26070.40837963  .00000000  00000+0  00000-0 0  9998
2 85183  66.0000  72.0000 0000000   0.0000 324.0000 13.81943914    11
CTC1_L_00485008-01
1 85184U 25073XK  26070.40837963  .00000000  00000+0  00000-0 0  9997
2 85184  66.0000  84.0000 0000000   0.0000 168.0000 13.81943914    11
CTC1_L_00485008-02
1 85185U 23887EL  26070.40837963  .00000000  00000+0  00000-0 0  9999
2 85185  66.0000  84.0000 0000000   0.0000 348.0000 13.81943914    12
CTC1_L_00485009-01
1 85186U 24897BY  26070.40837963  .00000000  00000+0  00000-0 0  9992
2 85186  66.0000  96.0000 0000000   0.0000 192.0000 13.81943914    13
CTC1_L_00485009-02
1 85187U 26960UT  26070.40837963  .00000000  00000+0  00000-0 0  9996
2 85187  66.0000  96.0000 0000000   0.0000  12.0000 13.81943914    15
CTC1_L_00485010-01
1 85188U 26087ZK  26070.40837963  .00000000  00000+0  00000-0 0  9997
2 85188  66.0000 108.0000 0000000   0.0000 216.0000 13.81943914    16
CTC1_L_00485010-02
1 85189U 23061FD  26070.40837963  .00000000  00000+0  00000-0 0  9997
2 85189  66.0000 108.0000 0000000   0.0000  36.0000 13.81943914    17
CTC1_L_00485011-01
1 85190U 26180MK  26070.40837963  .00000000  00000+0  00000-0 0  9994
2 85190  66.0000 120.0000 0000000   0.0000 240.0000 13.81943914    10
CTC1_L_00485011-02
1 85191U 22694MW  26070.40837963  .00000000  00000+0  00000-0 0  9991
2 85191  66.0000 120.0000 0000000   0.0000  60.0000 13.81943914    11
CTC1_L_00485012-01
1 85192U 26919HR  26070.40837963  .00000000  00000+0  00000-0 0  9996
2 85192  66.0000 132.0000 0000000   0.0000 264.0000 13.81943914    11
CTC1_L_00485012-02
1 85193U 24697AX  26070.40837963  .00000000  00000+0  00000-0 0  9998
2 85193  66.0000 132.0000 0000000   0.0000  84.0000 13.81943914    12
CTC1_L_00485013-01
1 85194U 24578UL  26070.40837963  .00000000  00000+0  00000-0 0  9997
2 85194  66.0000 144.0000 0000000   0.0000 288.0000 13.81943914    12
CTC1_L_00485013-02
1 85195U 23244GZ  26070.40837963  .00000000  00000+0  00000-0 0  9997
2 85195  66.0000 144.0000 0000000   0.0000 108.0000 13.81943914    14
CTC1_L_00485014-01
1 85196U 24682HT  26070.40837963  .00000000  00000+0  00000-0 0  9995
2 85196  66.0000 156.0000 0000000   0.0000 312.0000 13.81943914    15
CTC1_L_00485014-02
1 85197U 25692YN  26070.40837963  .00000000  00000+0  00000-0 0  9998
2 85197  66.0000 156.0000 0000000   0.0000 132.0000 13.81943914    16
CTC1_L_00485015-01
1 85198U 24691JY  26070.40837963  .00000000  00000+0  00000-0 0  9997
2 85198  66.0000 168.0000 0000000   0.0000 336.0000 13.81943914    16
CTC1_L_00485015-02
1 85199U 26406LM  26070.40837963  .00000000  00000+0  00000-0 0  9994
2 85199  66.0000 168.0000 0000000   0.0000 156.0000 13.81943914    17
CTC1_L_00485016-01
1 85200U 22835JZ  26070.40837963  .00000000  00000+0  00000-0 0  9999
2 85200  66.0000 180.0000 0000000   0.0000   0.0000 13.81943914    12
CTC1_L_00485016-02
1 85201U 23771BL  26070.40837963  .00000000  00000+0  00000-0 0  9990
2 85201  66.0000 180.0000 0000000   0.0000 180.0000 13.81943914    12
CTC1_L_00485017-01
1 85202U 23923IU  26070.40837963  .00000000  00000+0  00000-0 0  9990
2 85202  66.0000 192.0000 0000000   0.0000  24.0000 13.81943914    13
CTC1_L_00485017-02
1 85203U 22557BW  26070.40837963  .00000000  00000+0  00000-0 0  9993
2 85203  66.0000 192.0000 0000000   0.0000 204.0000 13.81943914    14
CTC1_L_00485018-01
1 85204U 25855MM  26070.40837963  .00000000  00000+0  00000-0 0  9998
2 85204  66.0000 204.0000 0000000   0.0000  48.0000 13.81943914    15
CTC1_L_00485018-02
1 85205U 22238LB  26070.40837963  .00000000  00000+0  00000-0 0  9991
2 85205  66.0000 204.0000 0000000   0.0000 228.0000 13.81943914    16
CTC1_L_00485019-01
1 85206U 25034UG  26070.40837963  .00000000  00000+0  00000-0 0  9999
2 85206  66.0000 216.0000 0000000   0.0000  72.0000 13.81943914    17
CTC1_L_00485019-02
1 85207U 24682QQ  26070.40837963  .00000000  00000+0  00000-0 0  9998
2 85207  66.0000 216.0000 0000000   0.0000 252.0000 13.81943914    18
CTC1_L_00485020-01
1 85208U 23591JY  26070.40837963  .00000000  00000+0  00000-0 0  9997
2 85208  66.0000 228.0000 0000000   0.0000  96.0000 13.81943914    18
CTC1_L_00485020-02
1 85209U 25724JP  26070.40837963  .00000000  00000+0  00000-0 0  9998
2 85209  66.0000 228.0000 0000000   0.0000 276.0000 13.81943914    19
CTC1_L_00485021-01
1 85210U 26721MC  26070.40837963  .00000000  00000+0  00000-0 0  9998
2 85210  66.0000 240.0000 0000000   0.0000 120.0000 13.81943914    13
CTC1_L_00485021-02
1 85211U 25555QX  26070.40837963  .00000000  00000+0  00000-0 0  9993
2 85211  66.0000 240.0000 0000000   0.0000 300.0000 13.81943914    14
CTC1_L_00485022-01
1 85212U 23190AW  26070.40837963  .00000000  00000+0  00000-0 0  9997
2 85212  66.0000 252.0000 0000000   0.0000 144.0000 13.81943914    14
CTC1_L_00485022-02
1 85213U 26394QN  26070.40837963  .00000000  00000+0  00000-0 0  9997
2 85213  66.0000 252.0000 0000000   0.0000 324.0000 13.81943914    15
CTC1_L_00485023-01
1 85214U 24423VO  26070.40837963  .00000000  00000+0  00000-0 0  9999
2 85214  66.0000 264.0000 0000000   0.0000 168.0000 13.81943914    15
CTC1_L_00485023-02
1 85215U 26817QK  26070.40837963  .00000000  00000+0  00000-0 0  9999
2 85215  66.0000 264.0000 0000000   0.0000 348.0000 13.81943914    16
CTC1_L_00485024-01
1 85216U 22469CX  26070.40837963  .00000000  00000+0  00000-0 0  9999
2 85216  66.0000 276.0000 0000000   0.0000 192.0000 13.81943914    17
CTC1_L_00485024-02
1 85217U 26743VQ  26070.40837963  .00000000  00000+0  00000-0 0  9999
2 85217  66.0000 276.0000 0000000   0.0000  12.0000 13.81943914    19
CTC1_L_00485025-01
1 85218U 24657J   26070.40837963  .00000000  00000+0  00000-0 0  9992
2 85218  66.0000 288.0000 0000000   0.0000 216.0000 13.81943914    19
CTC1_L_00485025-02
1 85219U 24090NC  26070.40837963  .00000000  00000+0  00000-0 0  9994
2 85219  66.0000 288.0000 0000000   0.0000  36.0000 13.81943914    10
CTC1_L_00485026-01
1 85220U 26570BL  26070.40837963  .00000000  00000+0  00000-0 0  9991
2 85220  66.0000 300.0000 0000000   0.0000 240.0000 13.81943914    14
CTC1_L_00485026-02
1 85221U 23004DH  26070.40837963  .00000000  00000+0  00000-0 0  9991
2 85221  66.0000 300.0000 0000000   0.0000  60.0000 13.81943914    15
CTC1_L_00485027-01
1 85222U 25036TR  26070.40837963  .00000000  00000+0  00000-0 0  9999
2 85222  66.0000 312.0000 0000000   0.0000 264.0000 13.81943914    15
CTC1_L_00485027-02
1 85223U 22986TT  26070.40837963  .00000000  00000+0  00000-0 0  9991
2 85223  66.0000 312.0000 0000000   0.0000  84.0000 13.81943914    16
CTC1_L_00485028-01
1 85224U 22251VJ  26070.40837963  .00000000  00000+0  00000-0 0  9997
2 85224  66.0000 324.0000 0000000   0.0000 288.0000 13.81943914    16
CTC1_L_00485028-02
1 85225U 25136OR  26070.40837963  .00000000  00000+0  00000-0 0  9993
2 85225  66.0000 324.0000 0000000   0.0000 108.0000 13.81943914    18
CTC1_L_00485029-01
1 85226U 24945FU  26070.40837963  .00000000  00000+0  00000-0 0  9991
2 85226  66.0000 336.0000 0000000   0.0000 312.0000 13.81943914    19
CTC1_L_00485029-02
1 85227U 22811MU  26070.40837963  .00000000  00000+0  00000-0 0  9992
2 85227  66.0000 336.0000 0000000   0.0000 132.0000 13.81943914    10
CTC1_L_00485030-01
1 85228U 22607TP  26070.40837963  .00000000  00000+0  00000-0 0  9996
2 85228  66.0000 348.0000 0000000   0.0000 336.0000 13.81943914    10
CTC1_L_00485030-02
1 85229U 26493JY  26070.40837963  .00000000  00000+0  00000-0 0  9994
2 85229  66.0000 348.0000 0000000   0.0000 156.0000 13.81943914    11
